start=new Date('2022-06-01T00:00:00.000Z').valueOf();
sats=[{"DECAY_DATE":null,"MEAN_ELEMENT_THEORY":"SGP4","MEAN_MOTION":"15.06385468","REV_AT_EPOCH":"14041","MEAN_ANOMALY":"305.1313","OBJECT_ID":"2019-074BG","EPHEMERIS_TYPE":"0","OBJECT_NAME":"STARLINK-1062","OBJECT_TYPE":"PAYLOAD","TLE_LINE1":"1 44767U 19074BG  22151.11111718 -.00001547  00000-0 -85018-4 0  9996","LAUNCH_DATE":"2019-11-11","GP_ID":"205027751","CLASSIFICATION_TYPE":"U","MEAN_MOTION_DOT":"-0.00001547","COUNTRY_CODE":"US","TIME_SYSTEM":"UTC","NORAD_CAT_ID":"44767","SITE":"AFETR","EPOCH":"2022-05-31T02:40:00.524352","RCS_SIZE":"LARGE","PERIOD":"95.593","PERIAPSIS":"545.996","FILE":"3474118","BSTAR":"-0.00008501800000","ECCENTRICITY":"0.00018220","SEMIMAJOR_AXIS":"6925.393","MEAN_MOTION_DDOT":"0.0000000000000","ARG_OF_PERICENTER":"54.9846","TLE_LINE2":"2 44767  53.0579 295.2850 0001822  54.9846 305.1313 15.06385468140411","RA_OF_ASC_NODE":"295.2850","APOAPSIS":"548.520","REF_FRAME":"TEME","INCLINATION":"53.0579","ELEMENT_SET_NO":"999","CENTER_NAME":"EARTH"},{"TLE_LINE1":"1 44768U 19074BH  22151.79764274  .00000106  00000-0  26002-4 0  9998","LAUNCH_DATE":"2019-11-11","CLASSIFICATION_TYPE":"U","GP_ID":"205037163","COUNTRY_CODE":"US","TIME_SYSTEM":"UTC","MEAN_MOTION_DOT":"0.00000106","MEAN_MOTION":"15.06392060","MEAN_ELEMENT_THEORY":"SGP4","DECAY_DATE":null,"REV_AT_EPOCH":"14068","MEAN_ANOMALY":"297.8814","EPHEMERIS_TYPE":"0","OBJECT_ID":"2019-074BH","OBJECT_NAME":"STARLINK-1063","OBJECT_TYPE":"PAYLOAD","MEAN_MOTION_DDOT":"0.0000000000000","SEMIMAJOR_AXIS":"6925.373","APOAPSIS":"548.351","RA_OF_ASC_NODE":"292.2052","TLE_LINE2":"2 44768  53.0556 292.2052 0001608  62.2338 297.8814 15.06392060140686","ARG_OF_PERICENTER":"62.2338","INCLINATION":"53.0556","REF_FRAME":"TEME","CENTER_NAME":"EARTH","ELEMENT_SET_NO":"999","SITE":"AFETR","NORAD_CAT_ID":"44768","RCS_SIZE":"LARGE","PERIOD":"95.593","EPOCH":"2022-05-31T19:08:36.332736","FILE":"3474352","PERIAPSIS":"546.124","ECCENTRICITY":"0.00016080","BSTAR":"0.00002600200000"},{"TLE_LINE1":"1 44770U 19074BK  22150.78353042  .00017126  00000-0  91031-3 0  9999","LAUNCH_DATE":"2019-11-11","GP_ID":"204974962","CLASSIFICATION_TYPE":"U","MEAN_MOTION_DOT":"0.00017126","COUNTRY_CODE":"US","TIME_SYSTEM":"UTC","DECAY_DATE":null,"MEAN_ELEMENT_THEORY":"SGP4","MEAN_MOTION":"15.15394243","REV_AT_EPOCH":"14052","MEAN_ANOMALY":"9.3739","OBJECT_ID":"2019-074BK","EPHEMERIS_TYPE":"0","OBJECT_NAME":"STARLINK-1065","OBJECT_TYPE":"PAYLOAD","SEMIMAJOR_AXIS":"6897.919","MEAN_MOTION_DDOT":"0.0000000000000","TLE_LINE2":"2 44770  53.0008 282.7071 0001340 350.7228   9.3739 15.15394243140522","ARG_OF_PERICENTER":"350.7228","RA_OF_ASC_NODE":"282.7071","APOAPSIS":"520.708","REF_FRAME":"TEME","INCLINATION":"53.0008","ELEMENT_SET_NO":"999","CENTER_NAME":"EARTH","NORAD_CAT_ID":"44770","SITE":"AFETR","PERIOD":"95.025","RCS_SIZE":"LARGE","EPOCH":"2022-05-30T18:48:17.028288","PERIAPSIS":"518.860","FILE":"3472994","BSTAR":"0.00091031000000","ECCENTRICITY":"0.00013400"},{"DECAY_DATE":null,"MEAN_ELEMENT_THEORY":"SGP4","MEAN_MOTION":"15.06399389","REV_AT_EPOCH":"14068","MEAN_ANOMALY":"315.0894","OBJECT_ID":"2019-074BL","EPHEMERIS_TYPE":"0","OBJECT_NAME":"STARLINK-1067","OBJECT_TYPE":"PAYLOAD","LAUNCH_DATE":"2019-11-11","TLE_LINE1":"1 44771U 19074BL  22151.78657722  .00002001  00000-0  15319-3 0  9994","GP_ID":"205036656","CLASSIFICATION_TYPE":"U","MEAN_MOTION_DOT":"0.00002001","COUNTRY_CODE":"US","TIME_SYSTEM":"UTC","NORAD_CAT_ID":"44771","SITE":"AFETR","PERIOD":"95.592","RCS_SIZE":"LARGE","EPOCH":"2022-05-31T18:52:40.271808","PERIAPSIS":"545.850","FILE":"3474352","BSTAR":"0.00015319000000","ECCENTRICITY":"0.00019710","SEMIMAJOR_AXIS":"6925.350","MEAN_MOTION_DDOT":"0.0000000000000","ARG_OF_PERICENTER":"45.0255","TLE_LINE2":"2 44771  53.0554 292.2626 0001971  45.0255 315.0894 15.06399389140687","RA_OF_ASC_NODE":"292.2626","APOAPSIS":"548.580","REF_FRAME":"TEME","INCLINATION":"53.0554","ELEMENT_SET_NO":"999","CENTER_NAME":"EARTH"},{"OBJECT_TYPE":"PAYLOAD","OBJECT_NAME":"STARLINK-1068","EPHEMERIS_TYPE":"0","OBJECT_ID":"2019-074BM","REV_AT_EPOCH":"14095","MEAN_ANOMALY":"301.3712","MEAN_MOTION":"15.06393784","MEAN_ELEMENT_THEORY":"SGP4","DECAY_DATE":null,"COUNTRY_CODE":"US","TIME_SYSTEM":"UTC","MEAN_MOTION_DOT":"0.00002721","CLASSIFICATION_TYPE":"U","GP_ID":"205037162","LAUNCH_DATE":"2019-11-11","TLE_LINE1":"1 44772U 19074BM  22151.77736751  .00002721  00000-0  20153-3 0  9995","ECCENTRICITY":"0.00014220","BSTAR":"0.00020153000000","FILE":"3474352","PERIAPSIS":"546.248","PERIOD":"95.593","RCS_SIZE":"LARGE","EPOCH":"2022-05-31T18:39:24.552864","SITE":"AFETR","NORAD_CAT_ID":"44772","CENTER_NAME":"EARTH","ELEMENT_SET_NO":"999","INCLINATION":"53.0538","REF_FRAME":"TEME","APOAPSIS":"548.217","RA_OF_ASC_NODE":"272.3146","ARG_OF_PERICENTER":"58.7416","TLE_LINE2":"2 44772  53.0538 272.3146 0001422  58.7416 301.3712 15.06393784140957","MEAN_MOTION_DDOT":"0.0000000000000","SEMIMAJOR_AXIS":"6925.368"},{"OBJECT_ID":"2020-001A","EPHEMERIS_TYPE":"0","OBJECT_NAME":"STARLINK-1073","OBJECT_TYPE":"PAYLOAD","DECAY_DATE":null,"MEAN_ELEMENT_THEORY":"SGP4","MEAN_MOTION":"15.06396698","REV_AT_EPOCH":"13206","MEAN_ANOMALY":"312.3043","MEAN_MOTION_DOT":"-0.00000981","COUNTRY_CODE":"US","TIME_SYSTEM":"UTC","TLE_LINE1":"1 44914U 20001A   22151.13048487 -.00000981  00000-0 -46983-4 0  9995","LAUNCH_DATE":"2020-01-07","GP_ID":"205026769","CLASSIFICATION_TYPE":"U","PERIAPSIS":"545.719","FILE":"3474118","BSTAR":"-0.00004698300000","ECCENTRICITY":"0.00021720","NORAD_CAT_ID":"44914","SITE":"AFETR","EPOCH":"2022-05-31T03:07:53.892768","RCS_SIZE":"LARGE","PERIOD":"95.592","REF_FRAME":"TEME","INCLINATION":"53.0561","ELEMENT_SET_NO":"999","CENTER_NAME":"EARTH","SEMIMAJOR_AXIS":"6925.359","MEAN_MOTION_DDOT":"0.0000000000000","TLE_LINE2":"2 44914  53.0561  55.2049 0002172  47.8130 312.3043 15.06396698132065","ARG_OF_PERICENTER":"47.8130","RA_OF_ASC_NODE":"55.2049","APOAPSIS":"548.728"},{"MEAN_MOTION_DOT":"-0.00002316","COUNTRY_CODE":"US","TIME_SYSTEM":"UTC","GP_ID":"205027516","CLASSIFICATION_TYPE":"U","LAUNCH_DATE":"2020-01-07","TLE_LINE1":"1 44915U 20001B   22151.15998179 -.00002316  00000-0 -13664-3 0  9993","OBJECT_TYPE":"PAYLOAD","OBJECT_NAME":"STARLINK-1084","OBJECT_ID":"2020-001B","EPHEMERIS_TYPE":"0","REV_AT_EPOCH":"13207","MEAN_ANOMALY":"300.2587","MEAN_ELEMENT_THEORY":"SGP4","DECAY_DATE":null,"MEAN_MOTION":"15.06388028","ELEMENT_SET_NO":"999","CENTER_NAME":"EARTH","REF_FRAME":"TEME","INCLINATION":"53.0570","TLE_LINE2":"2 44915  53.0570  55.0678 0001749  59.8575 300.2587 15.06388028132075","ARG_OF_PERICENTER":"59.8575","APOAPSIS":"548.462","RA_OF_ASC_NODE":"55.0678","SEMIMAJOR_AXIS":"6925.385","MEAN_MOTION_DDOT":"0.0000000000000","BSTAR":"-0.00013664000000","ECCENTRICITY":"0.00017490","PERIAPSIS":"546.039","FILE":"3474118","EPOCH":"2022-05-31T03:50:22.426656","RCS_SIZE":"LARGE","PERIOD":"95.593","NORAD_CAT_ID":"44915","SITE":"AFETR"},{"GP_ID":"205027266","CLASSIFICATION_TYPE":"U","LAUNCH_DATE":"2020-01-07","TLE_LINE1":"1 44917U 20001D   22151.16365941  .00000121  00000-0  27044-4 0  9999","MEAN_MOTION_DOT":"0.00000121","COUNTRY_CODE":"US","TIME_SYSTEM":"UTC","MEAN_ANOMALY":"289.4280","REV_AT_EPOCH":"13207","DECAY_DATE":null,"MEAN_ELEMENT_THEORY":"SGP4","MEAN_MOTION":"15.06401539","OBJECT_NAME":"STARLINK-1098","OBJECT_TYPE":"PAYLOAD","OBJECT_ID":"2020-001D","EPHEMERIS_TYPE":"0","TLE_LINE2":"2 44917  53.0565  55.0594 0001859  70.6910 289.4280 15.06401539132075","ARG_OF_PERICENTER":"70.6910","RA_OF_ASC_NODE":"55.0594","APOAPSIS":"548.496","SEMIMAJOR_AXIS":"6925.344","MEAN_MOTION_DDOT":"0.0000000000000","ELEMENT_SET_NO":"999","CENTER_NAME":"EARTH","REF_FRAME":"TEME","INCLINATION":"53.0565","RCS_SIZE":"LARGE","PERIOD":"95.592","EPOCH":"2022-05-31T03:55:40.173024","NORAD_CAT_ID":"44917","SITE":"AFETR","BSTAR":"0.00002704400000","ECCENTRICITY":"0.00018590","PERIAPSIS":"545.921","FILE":"3474118"},{"MEAN_MOTION":"15.06396151","MEAN_ELEMENT_THEORY":"SGP4","DECAY_DATE":null,"REV_AT_EPOCH":"13285","MEAN_ANOMALY":"295.1380","EPHEMERIS_TYPE":"0","OBJECT_ID":"2020-001E","OBJECT_TYPE":"PAYLOAD","OBJECT_NAME":"STARLINK-1099","LAUNCH_DATE":"2020-01-07","TLE_LINE1":"1 44918U 20001E   22151.44010093  .00000283  00000-0  37899-4 0  9994","CLASSIFICATION_TYPE":"U","GP_ID":"205003589","COUNTRY_CODE":"US","TIME_SYSTEM":"UTC","MEAN_MOTION_DOT":"0.00000283","SITE":"AFETR","NORAD_CAT_ID":"44918","EPOCH":"2022-05-31T10:33:44.720352","RCS_SIZE":"LARGE","PERIOD":"95.592","FILE":"3473966","PERIAPSIS":"545.931","ECCENTRICITY":"0.00018690","BSTAR":"0.00003789900000","SEMIMAJOR_AXIS":"6925.360","MEAN_MOTION_DDOT":"0.0000000000000","APOAPSIS":"548.520","RA_OF_ASC_NODE":"53.8135","ARG_OF_PERICENTER":"64.9802","TLE_LINE2":"2 44918  53.0553  53.8135 0001869  64.9802 295.1380 15.06396151132851","INCLINATION":"53.0553","REF_FRAME":"TEME","CENTER_NAME":"EARTH","ELEMENT_SET_NO":"999"},{"MEAN_MOTION_DDOT":"0.0000000000000","SEMIMAJOR_AXIS":"6925.377","RA_OF_ASC_NODE":"55.2486","APOAPSIS":"548.485","TLE_LINE2":"2 44920  53.0566  55.2486 0001795  56.4453 303.6708 15.06390622132068","ARG_OF_PERICENTER":"56.4453","INCLINATION":"53.0566","REF_FRAME":"TEME","CENTER_NAME":"EARTH","ELEMENT_SET_NO":"999","SITE":"AFETR","NORAD_CAT_ID":"44920","RCS_SIZE":"LARGE","EPOCH":"2022-05-31T02:57:17.782272","PERIOD":"95.593","FILE":"3474118","PERIAPSIS":"545.999","ECCENTRICITY":"0.00017950","BSTAR":"-0.00010834000000","LAUNCH_DATE":"2020-01-07","TLE_LINE1":"1 44920U 20001G   22151.12312248 -.00001895  00000-0 -10834-3 0  9990","CLASSIFICATION_TYPE":"U","GP_ID":"205026270","COUNTRY_CODE":"US","TIME_SYSTEM":"UTC","MEAN_MOTION_DOT":"-0.00001895","MEAN_MOTION":"15.06390622","DECAY_DATE":null,"MEAN_ELEMENT_THEORY":"SGP4","REV_AT_EPOCH":"13206","MEAN_ANOMALY":"303.6708","EPHEMERIS_TYPE":"0","OBJECT_ID":"2020-001G","OBJECT_TYPE":"PAYLOAD","OBJECT_NAME":"STARLINK-1102"}];
